start=new Date('2022-01-06T00:00:00.000Z').valueOf();
sats=[{"EPOCH":"2022-01-05T13:09:34.716672","OBJECT_TYPE":"PAYLOAD","FILE":"3264673","ECCENTRICITY":"0.00015450","ELEMENT_SET_NO":"999","TLE_LINE1":"1 47380U 21005AH  22005.54831848  .00001975  00000-0  15142-3 0  9998","GP_ID":"193253967","SEMIMAJOR_AXIS":"6925.333","MEAN_MOTION_DDOT":"0.0000000000000","TLE_LINE2":"2 47380  53.0550  33.7666 0001545  67.7732 292.3421 15.06405077 53747","DECAY_DATE":null,"COUNTRY_CODE":"US","PERIOD":"95.592","EPHEMERIS_TYPE":"0","CLASSIFICATION_TYPE":"U","TIME_SYSTEM":"UTC","NORAD_CAT_ID":"47380","MEAN_ANOMALY":"292.3421","MEAN_MOTION":"15.06405077","ARG_OF_PERICENTER":"67.7732","APOAPSIS":"548.268","SITE":"AFETR","RCS_SIZE":"LARGE","INCLINATION":"53.0550","RA_OF_ASC_NODE":"33.7666","PERIAPSIS":"546.128","CENTER_NAME":"EARTH","REF_FRAME":"TEME","BSTAR":"0.00015142000000","OBJECT_ID":"2021-005AH","OBJECT_NAME":"STARLINK-2100","LAUNCH_DATE":"2021-01-20","MEAN_ELEMENT_THEORY":"SGP4","MEAN_MOTION_DOT":"0.00001975","REV_AT_EPOCH":"5374"},{"TIME_SYSTEM":"UTC","MEAN_ANOMALY":"287.5551","NORAD_CAT_ID":"47381","PERIOD":"95.592","COUNTRY_CODE":"US","EPHEMERIS_TYPE":"0","CLASSIFICATION_TYPE":"U","TLE_LINE1":"1 47381U 21005AJ  22005.55613104 -.00001252  00000-0 -65174-4 0  9994","SEMIMAJOR_AXIS":"6925.363","GP_ID":"193258411","MEAN_MOTION_DDOT":"0.0000000000000","DECAY_DATE":null,"TLE_LINE2":"2 47381  53.0563  38.7321 0001377  72.5588 287.5551 15.06395157 54637","EPOCH":"2022-01-05T13:20:49.721856","OBJECT_TYPE":"PAYLOAD","FILE":"3264793","ECCENTRICITY":"0.00013770","ELEMENT_SET_NO":"999","MEAN_ELEMENT_THEORY":"SGP4","REV_AT_EPOCH":"5463","MEAN_MOTION_DOT":"-0.00001252","OBJECT_NAME":"STARLINK-2101","OBJECT_ID":"2021-005AJ","LAUNCH_DATE":"2021-01-20","CENTER_NAME":"EARTH","REF_FRAME":"TEME","BSTAR":"-0.00006517400000","ARG_OF_PERICENTER":"72.5588","MEAN_MOTION":"15.06395157","SITE":"AFETR","APOAPSIS":"548.182","RCS_SIZE":"LARGE","RA_OF_ASC_NODE":"38.7321","PERIAPSIS":"546.275","INCLINATION":"53.0563"},{"ELEMENT_SET_NO":"999","FILE":"3264673","ECCENTRICITY":"0.00014140","EPOCH":"2022-01-05T08:12:20.695680","OBJECT_TYPE":"PAYLOAD","DECAY_DATE":null,"TLE_LINE2":"2 47382  53.0565  34.6737 0001414  77.3503 282.7644 15.06398695 53705","SEMIMAJOR_AXIS":"6925.353","GP_ID":"193252965","MEAN_MOTION_DDOT":"0.0000000000000","TLE_LINE1":"1 47382U 21005AK  22005.34190620  .00000183  00000-0  31166-4 0  9999","CLASSIFICATION_TYPE":"U","EPHEMERIS_TYPE":"0","PERIOD":"95.592","COUNTRY_CODE":"US","MEAN_ANOMALY":"282.7644","NORAD_CAT_ID":"47382","TIME_SYSTEM":"UTC","PERIAPSIS":"546.238","RA_OF_ASC_NODE":"34.6737","INCLINATION":"53.0565","RCS_SIZE":"LARGE","APOAPSIS":"548.197","SITE":"AFETR","ARG_OF_PERICENTER":"77.3503","MEAN_MOTION":"15.06398695","BSTAR":"0.00003116600000","REF_FRAME":"TEME","CENTER_NAME":"EARTH","LAUNCH_DATE":"2021-01-20","OBJECT_NAME":"STARLINK-2102","OBJECT_ID":"2021-005AK","REV_AT_EPOCH":"5370","MEAN_MOTION_DOT":"0.00000183","MEAN_ELEMENT_THEORY":"SGP4"},{"REF_FRAME":"TEME","CENTER_NAME":"EARTH","BSTAR":"0.00000811590000","APOAPSIS":"548.291","SITE":"AFETR","MEAN_MOTION":"15.06393156","ARG_OF_PERICENTER":"65.8101","INCLINATION":"53.0566","RA_OF_ASC_NODE":"24.3040","PERIAPSIS":"546.178","RCS_SIZE":"LARGE","MEAN_ELEMENT_THEORY":"SGP4","MEAN_MOTION_DOT":"-0.00000161","REV_AT_EPOCH":"5386","OBJECT_ID":"2021-005AL","OBJECT_NAME":"STARLINK-2103","LAUNCH_DATE":"2021-01-20","TLE_LINE1":"1 47383U 21005AL  22005.42666325 -.00000161  00000-0  81159-5 0  9994","TLE_LINE2":"2 47383  53.0566  24.3040 0001525  65.8101 294.3048 15.06393156 53860","DECAY_DATE":null,"MEAN_MOTION_DDOT":"0.0000000000000","GP_ID":"193253717","SEMIMAJOR_AXIS":"6925.370","ECCENTRICITY":"0.00015250","FILE":"3264673","EPOCH":"2022-01-05T10:14:23.704800","OBJECT_TYPE":"PAYLOAD","ELEMENT_SET_NO":"999","NORAD_CAT_ID":"47383","MEAN_ANOMALY":"294.3048","TIME_SYSTEM":"UTC","EPHEMERIS_TYPE":"0","COUNTRY_CODE":"US","PERIOD":"95.593","CLASSIFICATION_TYPE":"U"},{"TLE_LINE2":"2 47384  53.0566  34.8619 0001145  73.6988 286.4127 15.06402723 53701","DECAY_DATE":null,"GP_ID":"193253468","SEMIMAJOR_AXIS":"6925.340","MEAN_MOTION_DDOT":"0.0000000000000","TLE_LINE1":"1 47384U 21005AM  22005.30410044 -.00000668  00000-0 -25960-4 0  9997","ELEMENT_SET_NO":"999","ECCENTRICITY":"0.00011450","FILE":"3264673","OBJECT_TYPE":"PAYLOAD","EPOCH":"2022-01-05T07:17:54.278016","NORAD_CAT_ID":"47384","MEAN_ANOMALY":"286.4127","TIME_SYSTEM":"UTC","CLASSIFICATION_TYPE":"U","EPHEMERIS_TYPE":"0","COUNTRY_CODE":"US","PERIOD":"95.592","BSTAR":"-0.00002596000000","REF_FRAME":"TEME","CENTER_NAME":"EARTH","INCLINATION":"53.0566","PERIAPSIS":"546.412","RA_OF_ASC_NODE":"34.8619","RCS_SIZE":"LARGE","SITE":"AFETR","APOAPSIS":"547.998","MEAN_MOTION":"15.06402723","ARG_OF_PERICENTER":"73.6988","MEAN_MOTION_DOT":"-0.00000668","REV_AT_EPOCH":"5370","MEAN_ELEMENT_THEORY":"SGP4","LAUNCH_DATE":"2021-01-20","OBJECT_ID":"2021-005AM","OBJECT_NAME":"STARLINK-2104"},{"DECAY_DATE":null,"TLE_LINE2":"2 47385  53.0558  34.1727 0001290  75.7581 284.3551 15.06401488 53726","GP_ID":"193252216","SEMIMAJOR_AXIS":"6925.344","MEAN_MOTION_DDOT":"0.0000000000000","TLE_LINE1":"1 47385U 21005AN  22005.45616894 -.00000059  00000-0  14915-4 0  9996","ELEMENT_SET_NO":"999","ECCENTRICITY":"0.00012900","FILE":"3264673","OBJECT_TYPE":"PAYLOAD","EPOCH":"2022-01-05T10:56:52.996416","MEAN_ANOMALY":"284.3551","NORAD_CAT_ID":"47385","TIME_SYSTEM":"UTC","CLASSIFICATION_TYPE":"U","EPHEMERIS_TYPE":"0","PERIOD":"95.592","COUNTRY_CODE":"US","BSTAR":"0.00001491500000","REF_FRAME":"TEME","CENTER_NAME":"EARTH","RA_OF_ASC_NODE":"34.1727","PERIAPSIS":"546.316","INCLINATION":"53.0558","RCS_SIZE":"LARGE","SITE":"AFETR","APOAPSIS":"548.102","ARG_OF_PERICENTER":"75.7581","MEAN_MOTION":"15.06401488","REV_AT_EPOCH":"5372","MEAN_MOTION_DOT":"-0.00000059","MEAN_ELEMENT_THEORY":"SGP4","LAUNCH_DATE":"2021-01-20","OBJECT_NAME":"STARLINK-2105","OBJECT_ID":"2021-005AN"},{"CLASSIFICATION_TYPE":"U","EPHEMERIS_TYPE":"0","PERIOD":"95.592","COUNTRY_CODE":"US","MEAN_ANOMALY":"285.3555","NORAD_CAT_ID":"47386","TIME_SYSTEM":"UTC","ELEMENT_SET_NO":"999","FILE":"3264794","ECCENTRICITY":"0.00013800","OBJECT_TYPE":"PAYLOAD","EPOCH":"2022-01-05T13:14:52.942560","DECAY_DATE":null,"TLE_LINE2":"2 47386  53.0562  33.7462 0001380  74.7586 285.3555 15.06398268 54364","GP_ID":"193258426","SEMIMAJOR_AXIS":"6925.354","MEAN_MOTION_DDOT":"0.0000000000000","TLE_LINE1":"1 47386U 21005AP  22005.55200165 -.00002784  00000-0 -16806-3 0  9996","LAUNCH_DATE":"2021-01-20","OBJECT_NAME":"STARLINK-2106","OBJECT_ID":"2021-005AP","REV_AT_EPOCH":"5436","MEAN_MOTION_DOT":"-0.00002784","MEAN_ELEMENT_THEORY":"SGP4","RA_OF_ASC_NODE":"33.7462","PERIAPSIS":"546.263","INCLINATION":"53.0562","RCS_SIZE":"LARGE","SITE":"AFETR","APOAPSIS":"548.175","ARG_OF_PERICENTER":"74.7586","MEAN_MOTION":"15.06398268","BSTAR":"-0.00016806000000","REF_FRAME":"TEME","CENTER_NAME":"EARTH"},{"OBJECT_NAME":"STARLINK-2108","OBJECT_ID":"2021-005AQ","LAUNCH_DATE":"2021-01-20","MEAN_ELEMENT_THEORY":"SGP4","REV_AT_EPOCH":"5333","MEAN_MOTION_DOT":"0.00000602","ARG_OF_PERICENTER":"82.3736","MEAN_MOTION":"15.06399498","APOAPSIS":"548.106","SITE":"AFETR","RCS_SIZE":"LARGE","RA_OF_ASC_NODE":"63.2130","PERIAPSIS":"546.324","INCLINATION":"53.0565","CENTER_NAME":"EARTH","REF_FRAME":"TEME","BSTAR":"0.00005932300000","PERIOD":"95.592","COUNTRY_CODE":"US","EPHEMERIS_TYPE":"0","CLASSIFICATION_TYPE":"U","TIME_SYSTEM":"UTC","MEAN_ANOMALY":"277.7400","NORAD_CAT_ID":"47387","EPOCH":"2022-01-05T16:06:03.390912","OBJECT_TYPE":"PAYLOAD","FILE":"3265018","ECCENTRICITY":"0.00012860","ELEMENT_SET_NO":"999","TLE_LINE1":"1 47387U 21005AQ  22005.67087258  .00000602  00000-0  59323-4 0  9993","GP_ID":"193285813","SEMIMAJOR_AXIS":"6925.350","MEAN_MOTION_DDOT":"0.0000000000000","DECAY_DATE":null,"TLE_LINE2":"2 47387  53.0565  63.2130 0001286  82.3736 277.7400 15.06399498 53331"},{"OBJECT_NAME":"STARLINK-2109","OBJECT_ID":"2021-005AR","LAUNCH_DATE":"2021-01-20","MEAN_ELEMENT_THEORY":"SGP4","REV_AT_EPOCH":"5332","MEAN_MOTION_DOT":"-0.00000571","ARG_OF_PERICENTER":"53.1850","MEAN_MOTION":"15.06401164","SITE":"AFETR","APOAPSIS":"548.254","RCS_SIZE":"LARGE","RA_OF_ASC_NODE":"63.4453","PERIAPSIS":"546.166","INCLINATION":"53.0565","CENTER_NAME":"EARTH","REF_FRAME":"TEME","BSTAR":"-0.00001946800000","PERIOD":"95.592","COUNTRY_CODE":"US","EPHEMERIS_TYPE":"0","CLASSIFICATION_TYPE":"U","TIME_SYSTEM":"UTC","MEAN_ANOMALY":"306.9277","NORAD_CAT_ID":"47388","OBJECT_TYPE":"PAYLOAD","EPOCH":"2022-01-05T14:51:44.995392","FILE":"3265018","ECCENTRICITY":"0.00015070","ELEMENT_SET_NO":"999","TLE_LINE1":"1 47388U 21005AR  22005.61927078 -.00000571  00000-0 -19468-4 0  9994","GP_ID":"193284596","MEAN_MOTION_DDOT":"0.0000000000000","SEMIMAJOR_AXIS":"6925.345","DECAY_DATE":null,"TLE_LINE2":"2 47388  53.0565  63.4453 0001507  53.1850 306.9277 15.06401164 53321"},{"ECCENTRICITY":"0.00012950","FILE":"3264673","EPOCH":"2022-01-05T12:47:00.963456","OBJECT_TYPE":"PAYLOAD","ELEMENT_SET_NO":"999","TLE_LINE1":"1 47389U 21005AS  22005.53265004  .00000841  00000-0  75320-4 0  9997","TLE_LINE2":"2 47389  53.0577  43.8181 0001295  77.9138 282.1996 15.06405519 53592","DECAY_DATE":null,"GP_ID":"193252716","SEMIMAJOR_AXIS":"6925.332","MEAN_MOTION_DDOT":"0.0000000000000","EPHEMERIS_TYPE":"0","COUNTRY_CODE":"US","PERIOD":"95.592","CLASSIFICATION_TYPE":"U","NORAD_CAT_ID":"47389","MEAN_ANOMALY":"282.1996","TIME_SYSTEM":"UTC","APOAPSIS":"548.093","SITE":"AFETR","MEAN_MOTION":"15.06405519","ARG_OF_PERICENTER":"77.9138","INCLINATION":"53.0577","PERIAPSIS":"546.300","RA_OF_ASC_NODE":"43.8181","RCS_SIZE":"LARGE","REF_FRAME":"TEME","CENTER_NAME":"EARTH","BSTAR":"0.00007532000000","OBJECT_ID":"2021-005AS","OBJECT_NAME":"STARLINK-2110","LAUNCH_DATE":"2021-01-20","MEAN_ELEMENT_THEORY":"SGP4","MEAN_MOTION_DOT":"0.00000841","REV_AT_EPOCH":"5359"}];
